{
  "norad_id": 58531,
  "name": "STARLINK-31012",
  "history": [
    {
      "epoch": "2026-03-28T20:53:35.634912Z",
      "apogee_km": 476.16250213269996,
      "perigee_km": 474.3236031969682,
      "latitude_deg": 1.7886607819937117e-05,
      "longitude_deg": -166.14905593498614,
      "height_km": 476.4642965768755,
      "semi_major_axis_km": 6853.380052664834,
      "eccentricity": 0.00013416,
      "inclination_deg": 53.1625,
      "raan_deg": 333.5342,
      "arg_perigee_deg": 110.5596,
      "mean_anomaly_deg": 249.5549,
      "mean_motion_rev_day": 15.30190628
    },
    {
      "epoch": "2026-03-29T01:35:45.492000Z",
      "apogee_km": 476.13250501025686,
      "perigee_km": 474.38077759553926,
      "latitude_deg": 2.3997811396688713e-05,
      "longitude_deg": 122.20714281122335,
      "height_km": 476.4500940566172,
      "semi_major_axis_km": 6853.393641302898,
      "eccentricity": 0.0001278,
      "inclination_deg": 53.1619,
      "raan_deg": 332.6246,
      "arg_perigee_deg": 109.6894,
      "mean_anomaly_deg": 250.4245,
      "mean_motion_rev_day": 15.30186077
    },
    {
      "epoch": "2026-03-30T01:06:33.033024Z",
      "apogee_km": 475.9665487543525,
      "perigee_km": 474.5054096351887,
      "latitude_deg": -4.248411414798574e-05,
      "longitude_deg": 123.99295315910204,
      "height_km": 476.40129337694134,
      "semi_major_axis_km": 6853.37297919477,
      "eccentricity": 0.0001066,
      "inclination_deg": 53.1614,
      "raan_deg": 328.0742,
      "arg_perigee_deg": 111.4124,
      "mean_anomaly_deg": 248.699,
      "mean_motion_rev_day": 15.30192997
    },
    {
      "epoch": "2026-03-30T01:06:33.033888Z",
      "apogee_km": 475.96641168689257,
      "perigee_km": 474.50554670264773,
      "latitude_deg": -4.0778504137555596e-05,
      "longitude_deg": 123.99295081994688,
      "height_km": 476.401243339211,
      "semi_major_axis_km": 6853.37297919477,
      "eccentricity": 0.00010658,
      "inclination_deg": 53.1614,
      "raan_deg": 328.0742,
      "arg_perigee_deg": 111.4124,
      "mean_anomaly_deg": 248.699,
      "mean_motion_rev_day": 15.30192997
    },
    {
      "epoch": "2026-03-30T19:55:11.428032Z",
      "apogee_km": 475.90699803988537,
      "perigee_km": 474.5530468509305,
      "latitude_deg": -1.494878218930562e-05,
      "longitude_deg": -162.57993119363488,
      "height_km": 476.34260815272154,
      "semi_major_axis_km": 6853.367022445407,
      "eccentricity": 9.878e-05,
      "inclination_deg": 53.1614,
      "raan_deg": 324.4338,
      "arg_perigee_deg": 108.4204,
      "mean_anomaly_deg": 251.6904,
      "mean_motion_rev_day": 15.30194992
    },
    {
      "epoch": "2026-03-31T21:00:02.987712Z",
      "apogee_km": 476.0129798250018,
      "perigee_km": 474.48467478551174,
      "latitude_deg": 8.063736683074739e-06,
      "longitude_deg": 175.32101576649993,
      "height_km": 476.2693176454345,
      "semi_major_axis_km": 6853.3858273052565,
      "eccentricity": 0.0001115,
      "inclination_deg": 53.1617,
      "raan_deg": 319.5796,
      "arg_perigee_deg": 99.1876,
      "mean_anomaly_deg": 260.9251,
      "mean_motion_rev_day": 15.30188694
    },
    {
      "epoch": "2026-04-01T17:22:44.743008Z",
      "apogee_km": 476.021487696592,
      "perigee_km": 474.45480613800737,
      "latitude_deg": -6.8846597513925715e-06,
      "longitude_deg": -135.1285803223752,
      "height_km": 476.015565103144,
      "semi_major_axis_km": 6853.375146917299,
      "eccentricity": 0.0001143,
      "inclination_deg": 53.159,
      "raan_deg": 315.6409,
      "arg_perigee_deg": 81.1333,
      "mean_anomaly_deg": 278.9797,
      "mean_motion_rev_day": 15.30192271
    },
    {
      "epoch": "2026-04-02T15:19:26.851872Z",
      "apogee_km": 475.95575574305167,
      "perigee_km": 474.3272797016698,
      "latitude_deg": 8.795961177296032e-06,
      "longitude_deg": -109.4570718208655,
      "height_km": 476.34700780597086,
      "semi_major_axis_km": 6853.27851772236,
      "eccentricity": 0.00011881,
      "inclination_deg": 53.1597,
      "raan_deg": 311.3891,
      "arg_perigee_deg": 112.1667,
      "mean_anomaly_deg": 247.946,
      "mean_motion_rev_day": 15.30224634
    },
    {
      "epoch": "2026-04-02T21:35:39.731424Z",
      "apogee_km": 475.9905929185661,
      "perigee_km": 474.3078370213425,
      "latitude_deg": 2.6728619070235995e-05,
      "longitude_deg": 155.0186671379765,
      "height_km": 476.24158798517806,
      "semi_major_axis_km": 6853.286214969954,
      "eccentricity": 0.00012277,
      "inclination_deg": 53.1601,
      "raan_deg": 310.176,
      "arg_perigee_deg": 103.3437,
      "mean_anomaly_deg": 256.7701,
      "mean_motion_rev_day": 15.30222056
    },
    {
      "epoch": "2026-04-03T21:06:30.961728Z",
      "apogee_km": 476.08705613625534,
      "perigee_km": 474.49294901545727,
      "latitude_deg": -4.38360714342486e-06,
      "longitude_deg": 156.78808922410118,
      "height_km": 476.28305587610447,
      "semi_major_axis_km": 6853.427002575856,
      "eccentricity": 0.0001163,
      "inclination_deg": 53.1598,
      "raan_deg": 305.6246,
      "arg_perigee_deg": 96.8347,
      "mean_anomaly_deg": 263.2786,
      "mean_motion_rev_day": 15.30174904
    },
    {
      "epoch": "2026-04-04T20:37:15.707712Z",
      "apogee_km": 475.7552775416816,
      "perigee_km": 474.4696079462228,
      "latitude_deg": -2.955431560917678e-05,
      "longitude_deg": 158.58640687940397,
      "height_km": 475.6157218086733,
      "semi_major_axis_km": 6853.249442743952,
      "eccentricity": 9.38e-05,
      "inclination_deg": 53.1593,
      "raan_deg": 301.075,
      "arg_perigee_deg": 52.0356,
      "mean_anomaly_deg": 308.0729,
      "mean_motion_rev_day": 15.30234372
    },
    {
      "epoch": "2026-04-05T13:51:53.411328Z",
      "apogee_km": 475.7273632023698,
      "perigee_km": 474.82339810936173,
      "latitude_deg": -6.740210058707673e-05,
      "longitude_deg": -104.11729886021358,
      "height_km": 476.5839792616339,
      "semi_major_axis_km": 6853.4123806558655,
      "eccentricity": 6.595e-05,
      "inclination_deg": 53.1589,
      "raan_deg": 297.7366,
      "arg_perigee_deg": 154.9169,
      "mean_anomaly_deg": 205.1863,
      "mean_motion_rev_day": 15.30179801
    },
    {
      "epoch": "2026-04-05T18:34:01.238016Z",
      "apogee_km": 475.62257101656724,
      "perigee_km": 474.67544689012993,
      "latitude_deg": 2.903467862176225e-05,
      "longitude_deg": -175.75304998647854,
      "height_km": 476.5124788836897,
      "semi_major_axis_km": 6853.286008953349,
      "eccentricity": 6.91e-05,
      "inclination_deg": 53.1591,
      "raan_deg": 296.8265,
      "arg_perigee_deg": 168.4856,
      "mean_anomaly_deg": 191.6161,
      "mean_motion_rev_day": 15.30222125
    },
    {
      "epoch": "2026-04-05T23:16:10.295904Z",
      "apogee_km": 475.63099066632003,
      "perigee_km": 474.6206826589405,
      "latitude_deg": 1.5137533903482378e-05,
      "longitude_deg": 112.60587263537414,
      "height_km": 476.5269430194185,
      "semi_major_axis_km": 6853.26283666263,
      "eccentricity": 7.371e-05,
      "inclination_deg": 53.1589,
      "raan_deg": 295.9163,
      "arg_perigee_deg": 173.222,
      "mean_anomaly_deg": 186.8791,
      "mean_motion_rev_day": 15.30229886
    },
    {
      "epoch": "2026-04-07T12:53:28.528800Z",
      "apogee_km": 476.3060689043805,
      "perigee_km": 474.19659597565624,
      "latitude_deg": -3.8028459103880408e-06,
      "longitude_deg": -100.54608559257068,
      "height_km": 477.04102459182275,
      "semi_major_axis_km": 6853.3883324400185,
      "eccentricity": 0.0001539,
      "inclination_deg": 53.1595,
      "raan_deg": 288.6354,
      "arg_perigee_deg": 212.5443,
      "mean_anomaly_deg": 147.5463,
      "mean_motion_rev_day": 15.30187855
    },
    {
      "epoch": "2026-04-07T19:09:40.571136Z",
      "apogee_km": 475.78695005552254,
      "perigee_km": 474.62188201479785,
      "latitude_deg": 1.4666728421503195e-05,
      "longitude_deg": 163.93225076884502,
      "height_km": 476.4971899838016,
      "semi_major_axis_km": 6853.34141603516,
      "eccentricity": 8.5e-05,
      "inclination_deg": 53.1603,
      "raan_deg": 287.4214,
      "arg_perigee_deg": 227.6646,
      "mean_anomaly_deg": 132.4283,
      "mean_motion_rev_day": 15.30203568
    },
    {
      "epoch": "2026-04-07T22:17:46.954752Z",
      "apogee_km": 475.738760139905,
      "perigee_km": 474.67100947425297,
      "latitude_deg": 2.781956951834953e-06,
      "longitude_deg": 116.17008887993718,
      "height_km": 476.405434761808,
      "semi_major_axis_km": 6853.341884807079,
      "eccentricity": 7.79e-05,
      "inclination_deg": 53.1602,
      "raan_deg": 286.8146,
      "arg_perigee_deg": 235.7997,
      "mean_anomaly_deg": 124.293,
      "mean_motion_rev_day": 15.30203411
    },
    {
      "epoch": "2026-04-09T18:11:17.084832Z",
      "apogee_km": 475.6304761828296,
      "perigee_km": 474.8121851981459,
      "latitude_deg": -2.535078322456774e-05,
      "longitude_deg": 167.49775223722227,
      "height_km": 476.12349045596727,
      "semi_major_axis_km": 6853.3583306904875,
      "eccentricity": 5.97e-05,
      "inclination_deg": 53.1604,
      "raan_deg": 278.3204,
      "arg_perigee_deg": 269.7593,
      "mean_anomaly_deg": 90.3339,
      "mean_motion_rev_day": 15.30197903
    },
    {
      "epoch": "2026-04-10T11:25:54.314976Z",
      "apogee_km": 475.93008182890935,
      "perigee_km": 474.75128366747686,
      "latitude_deg": -1.6054570715783344e-05,
      "longitude_deg": -95.20184084786767,
      "height_km": 475.9274447373094,
      "semi_major_axis_km": 6853.477682748193,
      "eccentricity": 8.6e-05,
      "inclination_deg": 53.1598,
      "raan_deg": 274.9841,
      "arg_perigee_deg": 302.1623,
      "mean_anomaly_deg": 57.9294,
      "mean_motion_rev_day": 15.30157931
    }
  ]
}